{
  "type": "FeatureCollection",
  "features": [
    {
      "type": "Feature",
      "properties": {
        "norad_id": 65731,
        "name": "1998-067XK",
        "group": "stations",
        "lat": -50.35904250832988,
        "lon": 12.879574060528078,
        "alt_km": 370.5822374150648,
        "timestamp": "2025-12-16T03:53:25.836454+00:00",
        "meta_object_name": "1998-067XK",
        "meta_object_id": "1998-067XK",
        "meta_epoch": "2025-12-15T02:17:17.539296",
        "meta_mean_motion": 15.66227391,
        "meta_eccentricity": 0.00048341,
        "meta_inclination": 51.628,
        "meta_ra_of_asc_node": 125.2769,
        "meta_arg_of_pericenter": 261.301,
        "meta_mean_anomaly": 98.7438,
        "meta_ephemeris_type": 0,
        "meta_classification_type": "U",
        "meta_norad_cat_id": 65731,
        "meta_element_set_no": 999,
        "meta_rev_at_epoch": 1351,
        "meta_bstar": 0.00072558706,
        "meta_mean_motion_dot": 0.00076548,
        "meta_mean_motion_ddot": 0,
        "tle_line1": "1 65731U 98067XK  25349.09534189  .00076548  00000+0  72559-3 0  9994",
        "tle_line2": "2 65731  51.6280 125.2769 0004834 261.3010  98.7438 15.66227391 13511"
      },
      "geometry": {
        "type": "Point",
        "coordinates": [
          12.879574060528078,
          -50.35904250832988
        ]
      }
    },
    {
      "type": "Feature",
      "properties": {
        "norad_id": 65732,
        "name": "RSP-03",
        "group": "stations",
        "lat": -51.583868669542795,
        "lon": 26.83515374978498,
        "alt_km": 361.22938266680194,
        "timestamp": "2025-12-16T03:53:25.836467+00:00",
        "meta_object_name": "RSP-03",
        "meta_object_id": "1998-067XL",
        "meta_epoch": "2025-12-15T02:17:54.297312",
        "meta_mean_motion": 15.6926161,
        "meta_eccentricity": 0.00056198,
        "meta_inclination": 51.6255,
        "meta_ra_of_asc_node": 124.5189,
        "meta_arg_of_pericenter": 267.5982,
        "meta_mean_anomaly": 92.4371,
        "meta_ephemeris_type": 0,
        "meta_classification_type": "U",
        "meta_norad_cat_id": 65732,
        "meta_element_set_no": 999,
        "meta_rev_at_epoch": 1353,
        "meta_bstar": 0.00084848916,
        "meta_mean_motion_dot": 0.00101794,
        "meta_mean_motion_ddot": 0,
        "tle_line1": "1 65732U 98067XL  25349.09576733  .00101794  00000+0  84849-3 0  9993",
        "tle_line2": "2 65732  51.6255 124.5189 0005619 267.5982  92.4371 15.69261610 13534"
      },
      "geometry": {
        "type": "Point",
        "coordinates": [
          26.83515374978498,
          -51.583868669542795
        ]
      }
    },
    {
      "type": "Feature",
      "properties": {
        "norad_id": 65733,
        "name": "GHS-01",
        "group": "stations",
        "lat": -51.48440997937051,
        "lon": 22.212924360906122,
        "alt_km": 341.54944982234247,
        "timestamp": "2025-12-16T03:53:25.836478+00:00",
        "meta_object_name": "GHS-01",
        "meta_object_id": "1998-067XM",
        "meta_epoch": "2025-12-15T02:24:56.017440",
        "meta_mean_motion": 15.759092,
        "meta_eccentricity": 0.00074389,
        "meta_inclination": 51.6273,
        "meta_ra_of_asc_node": 123.049,
        "meta_arg_of_pericenter": 297.3204,
        "meta_mean_anomaly": 62.7038,
        "meta_ephemeris_type": 0,
        "meta_classification_type": "U",
        "meta_norad_cat_id": 65733,
        "meta_element_set_no": 999,
        "meta_rev_at_epoch": 1355,
        "meta_bstar": 0.0010424079,
        "meta_mean_motion_dot": 0.00167711,
        "meta_mean_motion_ddot": 0,
        "tle_line1": "1 65733U 98067XM  25349.10064835  .00167711  00000+0  10424-2 0  9999",
        "tle_line2": "2 65733  51.6273 123.0490 0007438 297.3204  62.7038 15.75909200 13556"
      },
      "geometry": {
        "type": "Point",
        "coordinates": [
          22.212924360906122,
          -51.48440997937051
        ]
      }
    },
    {
      "type": "Feature",
      "properties": {
        "norad_id": 65941,
        "name": "YOTSUBA-KULOVER",
        "group": "stations",
        "lat": -41.83671673823011,
        "lon": 77.58315187433578,
        "alt_km": 391.1076261353728,
        "timestamp": "2025-12-16T03:53:25.836489+00:00",
        "meta_object_name": "YOTSUBA-KULOVER",
        "meta_object_id": "1998-067XN",
        "meta_epoch": "2025-12-14T10:37:31.352736",
        "meta_mean_motion": 15.59735422,
        "meta_eccentricity": 0.00013863,
        "meta_inclination": 51.6284,
        "meta_ra_of_asc_node": 131.4172,
        "meta_arg_of_pericenter": 271.9783,
        "meta_mean_anomaly": 88.1051,
        "meta_ephemeris_type": 0,
        "meta_classification_type": "U",
        "meta_norad_cat_id": 65941,
        "meta_element_set_no": 999,
        "meta_rev_at_epoch": 1012,
        "meta_bstar": 0.00091507112,
        "meta_mean_motion_dot": 0.00074853,
        "meta_mean_motion_ddot": 0,
        "tle_line1": "1 65941U 98067XN  25348.44272399  .00074853  00000+0  91507-3 0  9998",
        "tle_line2": "2 65941  51.6284 131.4172 0001386 271.9783  88.1051 15.59735422 10127"
      },
      "geometry": {
        "type": "Point",
        "coordinates": [
          77.58315187433578,
          -41.83671673823011
        ]
      }
    },
    {
      "type": "Feature",
      "properties": {
        "norad_id": 65942,
        "name": "BOTAN",
        "group": "stations",
        "lat": -34.07168552631545,
        "lon": 89.58111256968208,
        "alt_km": 379.82753093722295,
        "timestamp": "2025-12-16T03:53:25.836501+00:00",
        "meta_object_name": "BOTAN",
        "meta_object_id": "1998-067XP",
        "meta_epoch": "2025-12-13T19:19:30.936288",
        "meta_mean_motion": 15.63168137,
        "meta_eccentricity": 0.00029855,
        "meta_inclination": 51.6273,
        "meta_ra_of_asc_node": 133.9097,
        "meta_arg_of_pericenter": 245.5023,
        "meta_mean_anomaly": 114.566,
        "meta_ephemeris_type": 0,
        "meta_classification_type": "U",
        "meta_norad_cat_id": 65942,
        "meta_element_set_no": 999,
        "meta_rev_at_epoch": 1003,
        "meta_bstar": 0.0012359991,
        "meta_mean_motion_dot": 0.00116317,
        "meta_mean_motion_ddot": 0,
        "tle_line1": "1 65942U 98067XP  25347.80521917  .00116317  00000+0  12360-2 0  9992",
        "tle_line2": "2 65942  51.6273 133.9097 0002985 245.5023 114.5660 15.63168137 10037"
      },
      "geometry": {
        "type": "Point",
        "coordinates": [
          89.58111256968208,
          -34.07168552631545
        ]
      }
    },
    {
      "type": "Feature",
      "properties": {
        "norad_id": 65943,
        "name": "E-KAGAKU-1",
        "group": "stations",
        "lat": -42.20180492316817,
        "lon": 76.84018454491537,
        "alt_km": 391.96016878240516,
        "timestamp": "2025-12-16T03:53:25.836511+00:00",
        "meta_object_name": "E-KAGAKU-1",
        "meta_object_id": "1998-067XQ",
        "meta_epoch": "2025-12-14T15:14:24.603072",
        "meta_mean_motion": 15.59736251,
        "meta_eccentricity": 0.00018352,
        "meta_inclination": 51.6284,
        "meta_ra_of_asc_node": 130.4549,
        "meta_arg_of_pericenter": 215.0597,
        "meta_mean_anomaly": 145.0275,
        "meta_ephemeris_type": 0,
        "meta_classification_type": "U",
        "meta_norad_cat_id": 65943,
        "meta_element_set_no": 999,
        "meta_rev_at_epoch": 1015,
        "meta_bstar": 0.00073893681,
        "meta_mean_motion_dot": 0.00060238,
        "meta_mean_motion_ddot": 0,
        "tle_line1": "1 65943U 98067XQ  25348.63500698  .00060238  00000+0  73894-3 0  9998",
        "tle_line2": "2 65943  51.6284 130.4549 0001835 215.0597 145.0275 15.59736251 10152"
      },
      "geometry": {
        "type": "Point",
        "coordinates": [
          76.84018454491537,
          -42.20180492316817
        ]
      }
    },
    {
      "type": "Feature",
      "properties": {
        "norad_id": 66052,
        "name": "HRC MONOBLOCK CAMERA",
        "group": "stations",
        "lat": -28.98645072234272,
        "lon": -29.525277347727922,
        "alt_km": 405.65168207495753,
        "timestamp": "2025-12-16T03:53:25.836522+00:00",
        "meta_object_name": "HRC MONOBLOCK CAMERA",
        "meta_object_id": "1998-067XR",
        "meta_epoch": "2025-12-15T08:26:23.325504",
        "meta_mean_motion": 15.54333507,
        "meta_eccentricity": 0.00029894,
        "meta_inclination": 51.6287,
        "meta_ra_of_asc_node": 128.4815,
        "meta_arg_of_pericenter": 195.8613,
        "meta_mean_anomaly": 164.2285,
        "meta_ephemeris_type": 0,
        "meta_classification_type": "U",
        "meta_norad_cat_id": 66052,
        "meta_element_set_no": 999,
        "meta_rev_at_epoch": 924,
        "meta_bstar": 0.00041424245,
        "meta_mean_motion_dot": 0.00027244,
        "meta_mean_motion_ddot": 0,
        "tle_line1": "1 66052U 98067XR  25349.35165886  .00027244  00000+0  41424-3 0  9990",
        "tle_line2": "2 66052  51.6287 128.4815 0002989 195.8613 164.2285 15.54333507  9249"
      },
      "geometry": {
        "type": "Point",
        "coordinates": [
          -29.525277347727922,
          -28.98645072234272
        ]
      }
    }
  ]
}